STARLINK-36330          
1 67737U 26026S   26071.25001157 -.01908247  00000+0 -54694-1 0  9994
2 67737  97.2853 125.8643 0001944  80.5566 178.2238 15.39291424  5728
STARLINK-36327          
1 67738U 26026T   26071.25001157 -.01870355  00000+0 -53626-1 0  9997
2 67738  97.2838 125.8707 0001852  76.9872 197.1122 15.39213362  5727
STARLINK-36329          
1 67739U 26026U   26071.25001157 -.01864018  00000+0 -51640-1 0  9991
2 67739  97.2844 125.9064 0001441  82.6762 275.8650 15.40245400  5728
STARLINK-36737          
1 67740U 26026V   26071.25001157 -.01895702  00000+0 -54147-1 0  9992
2 67740  97.2838 125.8770 0001775  81.8637 206.4643 15.39375400  5722
STARLINK-36740          
1 67741U 26026W   26071.14190648 -.00283940  00000+0 -55632-2 0  9990
2 67741  97.2859 125.7411 0001712  74.7246 285.4194 15.48384860  4508
STARLINK-36693          
1 67742U 26026X   26071.25001157 -.01891838  00000+0 -43304-1 0  9993
2 67742  97.2852 125.8498 0001853  76.2489 158.3498 15.45939261  5863
STARLINK-36717          
1 67743U 26026Y   26071.25001157 -.01921424  00000+0 -50898-1 0  9995
2 67743  97.2848 125.8734 0001773  84.3284 203.2170 15.41690754  5860
STARLINK-36692          
1 67744U 26026Z   26071.25001157 -.01905258  00000+0 -47145-1 0  9994
2 67744  97.2852 125.8603 0001881  84.6079 173.2036 15.43683398  5726
2026-027A               
1 67746U 26027A   26071.27470411  .00009706  00000+0  48301-3 0  9999
2 67746  97.4902 200.2606 0010357 185.1852 174.9277 15.17766784  4255
2026-027B               
1 67747U 26027B   26071.27284486  .00009348  00000+0  46401-3 0  9996
2 67747  97.4897 200.2609 0010460 187.3692 172.7390 15.17867088  4254
2026-027C               
1 67748U 26027C   26071.33735369  .00006457  00000+0  32171-3 0  9992
2 67748  97.4908 200.3325 0010856 189.4843 170.6187 15.17855873  4265
2026-027D               
1 67749U 26027D   26071.33282588  .00010374  00000+0  50914-3 0  9991
2 67749  97.4902 200.3368 0010418 194.7392 165.3540 15.18234124  4219
2026-027E               
1 67750U 26027E   26071.33312919  .00009495  00000+0  46716-3 0  9992
2 67750  97.4913 200.3403 0009690 195.4632 164.6307 15.18176350  4262
2026-027F               
1 67751U 26027F   26068.82581808  .00004513  00000+0  22391-3 0  9997
2 67751  97.4922 197.8630 0009672 203.5802 156.4990 15.18180546  3881
2026-027G               
1 67752U 26027G   26071.29443446  .00008679  00000+0  50550-3 0  9993
2 67752  97.4909 200.2375 0012140 218.2876 141.7494 15.12190634  4251
JIELONG-3 R/B           
1 67753U 26027H   26071.29986177  .00627953  23608-5  75351-3 0  9990
2 67753  97.5115 202.5528 0203184 235.4016 122.7940 15.79199903  4395
